{"fetched_at":"2026-03-29T02:12:04Z","count":15717,"tles":[{"name":"STARLINK-11086 [DTC]","line1":"1 60043U 24112F   26087.49290373 -.00000100  00000+0  40221-5 0  9998","line2":"2 60043  53.1607 173.6201 0000529  97.5765 262.5313 15.69707242103933","category":"Starlink"}]}